{"type":"FeatureCollection","features":[{"type":"Feature","properties":{"id":"ilocos-norte","name":"Ilocos Norte"},"geometry":{"type":"Polygon","coordinates":[[[120.57182232500008,17.786033365000037],[120.69086868800002,17.83457964200005],[120.85020468100005,17.962860961000043],[120.89458557200008,17.951472294000038],[120.9203956020001,17.95626482200003],[120.9469459710001,17.99709437600006],[120.9277503080001,18.020743286000023],[120.92814130400008,18.088193385000068],[120.97006946800002,18.18186392000007],[120.92676405500005,18.241938255000036],[120.91666636100001,18.28456025600007],[120.96914518200002,18.510116371000038],[120.97645367700012,18.568958937000048],[120.85288653600003,18.647526628000037],[120.72517807700002,18.52894981400004],[120.5636528010001,18.49142517700005],[120.59729645400012,18.333825110000078],[120.47091102600007,18.08597968200007],[120.44338379200008,17.90272064800007],[120.57182232500008,17.786033365000037]]]}},{"type":"Feature","properties":{"id":"ilocos-sur","name":"Ilocos Sur"},"geometry":{"type":"Polygon","coordinates":[[[120.57182232500008,17.786033365000037],[120.44338379200008,17.90272064800007],[120.43523230500013,17.731811538000045],[120.35281905200009,17.635678444000064],[120.4612753570001,17.40782160400005],[120.41427879900006,17.204509846000064],[120.44818463300011,17.04352363600003],[120.41079750900008,16.920904919000066],[120.50695831400003,16.846549994000043],[120.5650648840001,16.669766382000034],[120.58601613200004,16.836661373000027],[120.78527385300004,16.92133500700004],[120.77482395200002,17.10802099300002],[120.67840099500005,17.25683886900003],[120.56675985500011,17.30715998400006],[120.56549074100006,17.50175551600006],[120.49781832400004,17.625130266000042],[120.57182232500008,17.786033365000037]]]}},{"type":"Feature","properties":{"id":"la-union","name":"La Union"},"geometry":{"type":"Polygon","coordinates":[[[120.5650648840001,16.669766382000034],[120.50695831400003,16.846549994000043],[120.41079750900008,16.920904919000066],[120.33528829000012,16.83673898400002],[120.29732813300008,16.604885739000053],[120.34790061800003,16.28190458400007],[120.41726211800005,16.20473609300006],[120.51182322200009,16.23220132700004],[120.4673463900001,16.502706239000076],[120.5650648840001,16.669766382000034]]]}},{"type":"Feature","properties":{"id":"pangasinan","name":"Pangasinan"},"geometry":{"type":"Polygon","coordinates":[[[120.41726211800005,16.20473609300006],[120.28393004600002,16.050265633000038],[120.14400125200005,16.038412460000075],[120.09609883400003,16.156413629000046],[119.78877653400002,16.332683557000053],[119.74972090100005,15.965595011000058],[119.85466878400007,15.962626218000025],[119.90178234300005,15.807124243000034],[120.01961753400008,15.872207125000045],[120.14429317400004,15.82619759400006],[120.2528567830001,15.617769571000052],[120.36227633300007,15.735466716000072],[120.46759425200003,15.722242866000038],[120.58036818900007,15.82990640500003],[120.6036309120001,15.860894016000035],[120.6150636640001,15.815561238000045],[120.69093991600005,15.831160646000058],[120.81905751900001,15.793215701000065],[120.92052940700013,15.966318216000047],[120.8961103580001,16.042520563000043],[120.84150888600004,16.168612326000076],[120.628418151,16.18062420900003],[120.51182322200009,16.23220132700004],[120.41726211800005,16.20473609300006]]]}},{"type":"Feature","properties":{"id":"bukidnon","name":"Bukidnon"},"geometry":{"type":"Polygon","coordinates":[[[125.1711042160001,8.582282192000035],[124.9095479680001,8.599141823000025],[124.77101278400005,8.421980772000042],[124.62696749800011,8.41809568000002],[124.56705519500008,8.160145672000052],[124.49892875400008,8.144089777000033],[124.52560673000004,8.108390977000054],[124.54747900400004,8.064921644000039],[124.54800408600009,8.029671450000023],[124.56478764500004,7.994089863000054],[124.56253066200009,7.98184142100007],[124.60192866200009,7.909914519000039],[124.61878716900004,7.887981693000029],[124.63177669800007,7.84637240400002],[124.6638390280001,7.834204876000058],[124.68825885600008,7.79036404900006],[124.73141648500007,7.745150887000022],[124.72852694100006,7.720516810000047],[124.7433125890001,7.698349593000046],[124.76354225800004,7.647100545000057],[124.80512258100009,7.622628351000059],[124.81842655400008,7.594076047000047],[124.82628901900013,7.541656422000072],[124.83916392300011,7.456086250000056],[124.8949491400001,7.414777261000041],[125.05377243200007,7.41197955900003],[125.06695334500013,7.451181651000068],[125.23062998900004,7.500939476000043],[125.32590265800002,7.565047433000073],[125.42437487600013,7.684201312000026],[125.44083203100001,7.743106942000054],[125.43209521600012,7.78720535900004],[125.41623533800009,7.819379437000065],[125.42010363000009,7.909866804000046],[125.41511766700012,7.938313313000037],[125.38635865800006,7.984359599000071],[125.37505743800013,8.01498092600002],[125.37992309200003,8.042899480000074],[125.4056280000001,8.076177],[125.43694530500012,8.085885669000051],[125.43515705400011,8.10919805800006],[125.38380922100009,8.179686150000066],[125.36827841000002,8.18486486200004],[125.36471556900007,8.217653674000076],[125.34678330500005,8.232364682000021],[125.3398775820001,8.284365215000038],[125.308692973,8.311562027000036],[125.2750800000001,8.354652],[125.27526695500002,8.390871314000035],[125.28373433300011,8.42253622800007],[125.266307,8.438375],[125.24756096900012,8.47806955300007],[125.25254272100007,8.551628289000066],[125.26060613800007,8.579006867000032],[125.1711042160001,8.582282192000035]]]}},{"type":"Feature","properties":{"id":"camiguin","name":"Camiguin"},"geometry":{"type":"Polygon","coordinates":[[[124.69874835600001,9.256861598000055],[124.64308451900003,9.152681581000024],[124.74451065500013,9.102719074000047],[124.77888893500005,9.203107051000071],[124.69874835600001,9.256861598000055]]]}},{"type":"Feature","properties":{"id":"lanao-del-norte","name":"Lanao del Norte"},"geometry":{"type":"Polygon","coordinates":[[[124.56705519500008,8.160145672000052],[124.4547307570001,8.320203159000071],[124.24745302700002,8.332102494000024],[124.23174372900009,8.21978777000004],[124.03342670100005,8.198024198000041],[123.849117137,8.111767395000072],[123.64985195300005,7.959801629000025],[123.63503351900012,7.932721924000022],[123.66354640300007,7.922497570000077],[123.65928514200006,7.877206733000037],[123.63365937400012,7.868724675000066],[123.62337728000013,7.84693984800003],[123.77589725100006,7.714183635000039],[123.85993317800002,7.714928050000026],[123.87027291100003,7.738132882000057],[123.90294426500009,7.729355503000024],[123.95932336000011,7.724984796000059],[124.00162475900004,7.742659211000047],[123.99551305900002,7.785322082000049],[124.02390819500012,7.828601493000061],[123.99573031600005,7.838661307000053],[123.97368923300009,7.874036868000074],[123.97742153800004,7.892975554000032],[123.98784113600004,7.935095518000024],[124.03081920000012,7.952898652000045],[124.10163486000012,7.96445142400006],[124.1143295060001,7.985754760000019],[124.11135055800004,8.021062870000035],[124.1576227700001,8.033463527000038],[124.19412436100004,8.021356720000028],[124.21195258600004,8.048658225000056],[124.21234011800006,8.067705201000024],[124.25137964700002,8.066451624000024],[124.28842639200002,8.056473836000064],[124.3318176910001,8.073890680000034],[124.33770848200002,8.10247530300006],[124.37347789400009,8.12725930700003],[124.37657102300012,8.158134573000043],[124.43501488000004,8.128414759000064],[124.45554609600005,8.13293686700007],[124.48026881700002,8.162042287000075],[124.49892875400008,8.144089777000033],[124.56705519500008,8.160145672000052]]]}},{"type":"Feature","properties":{"id":"misamis-occidental","name":"Misamis Occidental"},"geometry":{"type":"Polygon","coordinates":[[[123.6165929550001,8.033723301000064],[123.72166107400005,8.045442757000046],[123.86886333600012,8.171613492000063],[123.83619427100007,8.431295972000044],[123.71244413700003,8.622072743000045],[123.61195903400007,8.669205422000061],[123.55669766900007,8.501533075000054],[123.5595297530001,8.479864054000075],[123.56107968000003,8.34535582600006],[123.55831622200003,8.294802987000025],[123.55807546900009,8.180193381000038],[123.562114887,8.080917875000068],[123.56117891200006,8.02504065200003],[123.60114335100002,8.026000753000062],[123.6165929550001,8.033723301000064]]]}},{"type":"Feature","properties":{"id":"misamis-oriental","name":"Misamis Oriental"},"geometry":{"type":"Polygon","coordinates":[[[125.1711042160001,8.582282192000035],[125.19338500500008,8.61971369400004],[125.22644761300013,8.646580223000054],[125.24017963000007,8.668428995000054],[125.23621368400008,8.784649849000061],[125.24109649700007,8.840640068000027],[125.25092495400008,8.873843862000058],[125.22140040500007,8.921750022000028],[125.22444407900002,8.96754260100005],[125.2381393180001,8.987511528000027],[125.21767746800005,9.03047378100007],[125.20772470700001,9.093653081000067],[125.18527237600007,8.896002586000064],[125.07836957000008,8.828634423000038],[124.86746723000012,9.007835158000034],[124.77188966600009,8.965366043000074],[124.78822348800009,8.81777744900006],[124.74480331800008,8.70504771900005],[124.74335184200004,8.494763295000041],[124.56648540300013,8.540298479000056],[124.45720933600013,8.624893131000022],[124.31225759000006,8.536184357000021],[124.24745302700002,8.332102494000024],[124.4547307570001,8.320203159000071],[124.56705519500008,8.160145672000052],[124.62696749800011,8.41809568000002],[124.77101278400005,8.421980772000042],[124.9095479680001,8.599141823000025],[125.1711042160001,8.582282192000035]]]}},{"type":"Feature","properties":{"id":"davao-del-norte","name":"Davao del Norte"},"geometry":{"type":"Polygon","coordinates":[[[125.66104503500003,7.998152495000054],[125.37938892500007,8.003247176000059],[125.41511766700012,7.938313313000037],[125.42010363000009,7.909866804000046],[125.41623533800009,7.819379437000065],[125.43209521600012,7.78720535900004],[125.44083203100001,7.743106942000054],[125.42437487600013,7.684201312000026],[125.32590265800002,7.565047433000073],[125.5436054380001,7.565447],[125.5522667990001,7.242435550000036],[125.68045380800005,7.262678134000055],[125.83778830900009,7.363140017000034],[125.83295698500002,7.46168665600004],[125.93915253400007,7.647606342000074],[125.81019544700005,7.681409558000042],[125.66675715500003,7.841694446000075],[125.66104503500003,7.998152495000054]]]}},{"type":"Feature","properties":{"id":"davao-del-sur","name":"Davao del Sur"},"geometry":{"type":"Polygon","coordinates":[[[125.68045380800005,7.262678134000055],[125.5522667990001,7.242435550000036],[125.5436054380001,7.565447],[125.32590265800002,7.565047433000073],[125.23062998900004,7.500939476000043],[125.23120292600004,7.356423014000031],[125.255211141,7.259347723000076],[125.22876936500006,7.175858360000063],[125.29163036900002,7.105673260000061],[125.19937439800002,6.904489128000022],[125.0909345780001,6.83716444600003],[125.0467900320001,6.668458753000038],[125.09180406200004,6.567451061000043],[125.12126067600002,6.547711038000045],[125.14043474600011,6.520380430000044],[125.11874252500003,6.501291276000075],[125.09799452200002,6.498286680000035],[125.10770072100001,6.43610916700004],[125.13301945500005,6.431130764000045],[125.20054683600007,6.461880608000056],[125.24867405900012,6.434868996000035],[125.34045833300003,6.49375],[125.39320607100002,6.503467441000057],[125.40581366500008,6.480592692000072],[125.44089168800008,6.578166558000019],[125.38750600900005,6.605690275000029],[125.39076747800003,6.802989452000078],[125.53634369500003,7.039341186000057],[125.66294121700003,7.121591885000043],[125.68045380800005,7.262678134000055]]]}},{"type":"Feature","properties":{"id":"davao-oriental","name":"Davao Oriental"},"geometry":{"type":"Polygon","coordinates":[[[125.94416025200007,7.074209494000057],[125.97700497500011,6.927888108000047],[126.07794165300004,6.851106154000035],[126.06934339700001,6.650251584000045],[126.10107533100006,6.48329439100007],[126.22571853900003,6.43626030200005],[126.22031676700011,6.633980877000056],[126.25927703600006,6.756330677000052],[126.16771237800005,6.886854116000054],[126.29017270900012,6.904024326000068],[126.33660481700008,7.004884472000072],[126.4461697160001,7.01532088600004],[126.53386538400002,7.206263027000035],[126.55767698300008,7.718362968000066],[126.38423824900006,7.828845454000029],[126.35124641100005,7.933008011000028],[126.35158064300003,8.00206593700005],[126.22779055100011,8.000190630000077],[126.20766344900005,7.985745608000057],[126.15782097100008,7.990592368000023],[126.29220999300003,7.447326987000054],[126.29757143800008,7.272718882000049],[125.94416025200007,7.074209494000057]]]}},{"type":"Feature","properties":{"id":"compostela-valley","name":"Compostela Valley"},"geometry":{"type":"Polygon","coordinates":[[[126.15782097100008,7.990592368000023],[126.11269120100009,7.982457178000059],[126.07292436000012,7.957943758000056],[126.04489698100008,7.932641297000036],[126.00489698100013,7.947741297000049],[125.9850969800001,7.977341296000077],[125.98004201000003,7.998677944000063],[125.911491,7.999984],[125.9175223090001,7.964770265000026],[125.90086608200012,7.930862946000047],[125.87623866000003,7.936216733000037],[125.85149226600005,7.96714972600006],[125.80568764200005,7.970124052000074],[125.78558119600008,7.948708904000059],[125.77558746000011,7.95192117500005],[125.7522891100001,7.983229664000022],[125.66104503500003,7.998152495000054],[125.66675715500003,7.841694446000075],[125.81019544700005,7.681409558000042],[125.93915253400007,7.647606342000074],[125.83295698500002,7.46168665600004],[125.83778830900009,7.363140017000034],[125.83778266200011,7.25455086900007],[125.94416025200007,7.074209494000057],[126.29757143800008,7.272718882000049],[126.29220999300003,7.447326987000054],[126.15782097100008,7.990592368000023]]]}},{"type":"Feature","properties":{"id":"davao-occidental","name":"Davao Occidental"},"geometry":{"type":"Polygon","coordinates":[[[125.40581366500008,6.480592692000072],[125.42545114400004,6.32412265100004],[125.47366583400003,6.295944447000067],[125.50458349500002,6.229850343000067],[125.50715002400011,6.149780337000037],[125.53856638300012,6.070512974000053],[125.48104653300004,5.908264889000064],[125.48315330700007,5.837673675000077],[125.39701450600013,5.679604112000049],[125.51289608600007,5.748675381000054],[125.66078136500005,5.920500364000021],[125.71411182700001,6.098545865000061],[125.6983104740001,6.220228052000037],[125.5892808320001,6.488884520000056],[125.44089168800008,6.578166558000019],[125.40581366500008,6.480592692000072]]]}},{"type":"Feature","properties":{"id":"cotabato","name":"Cotabato"},"geometry":{"type":"Polygon","coordinates":[[[125.05218985600004,6.771758358000057],[125.0909345780001,6.83716444600003],[125.19937439800002,6.904489128000022],[125.29163036900002,7.105673260000061],[125.22876936500006,7.175858360000063],[125.255211141,7.259347723000076],[125.23120292600004,7.356423014000031],[125.22941389100005,7.491877260000024],[125.06695334500013,7.451181651000068],[125.05377243200007,7.41197955900003],[124.8949491400001,7.414777261000041],[124.83916392300011,7.456086250000056],[124.79089464000003,7.542728348000025],[124.7402921920001,7.591068371000062],[124.59036584400009,7.609324928000033],[124.52804919700009,7.638289207000071],[124.48528910200002,7.438605069000062],[124.39602007500004,7.355388001000049],[124.36626343700006,7.235560970000052],[124.46756777700011,7.228463736000037],[124.53774377800005,7.088158932000056],[124.664567389,7.062823792000074],[124.66756101100009,7.235391182000058],[124.78445446500007,7.202298681000056],[124.8252119780001,7.062747508000031],[124.82383263900012,6.949087778000034],[124.80548632600005,6.841646872000068],[124.82249612600003,6.794133661000046],[124.95268549500008,6.784597325000049],[125.00774339400006,6.734105528000044],[125.05218985600004,6.771758358000057]]]}},{"type":"Feature","properties":{"id":"south-cotabato","name":"South Cotabato"},"geometry":{"type":"Polygon","coordinates":[[[125.10553101800008,6.553659048000043],[125.002097305,6.534317616000066],[124.76987000100006,6.591636409000045],[124.61392695400004,6.558790609000027],[124.6331832300001,6.399346561000072],[124.40700939500006,6.350098604000038],[124.40645356900005,6.207580064000069],[124.84607298500009,6.013338533000023],[125.00603333200002,6.01072849600007],[125.10392874900003,5.955319112000039],[125.170109442,6.10629712900004],[125.23695430400005,6.095554413000058],[125.24666173900005,6.263597311000069],[125.11303874600003,6.435048629000049],[125.10553101800008,6.553659048000043]]]}},{"type":"Feature","properties":{"id":"sultan-kudarat","name":"Sultan Kudarat"},"geometry":{"type":"Polygon","coordinates":[[[125.00774339400006,6.734105528000044],[124.88680814300004,6.677562946000023],[124.86302203700006,6.60862987300004],[124.77892310100003,6.623288442000046],[124.78709570600004,6.67697144300007],[124.71708527800003,6.810847400000056],[124.63372708500003,6.887706705000027],[124.58028927100008,6.850143099000037],[124.57833560200004,6.783005277000029],[124.50931452600003,6.772891965000042],[124.51614574200006,6.727932620000047],[124.41355869200004,6.727836713000043],[124.27895399600006,6.69617573000005],[124.21014178100008,6.743249806000051],[124.0333427710001,6.740810256000032],[124.0211425650001,6.52400046200006],[124.04761814100003,6.398968457000022],[124.18475064300003,6.210645933000023],[124.36398694800006,6.115464183000029],[124.40645356900005,6.207580064000069],[124.40700939500006,6.350098604000038],[124.6331832300001,6.399346561000072],[124.61392695400004,6.558790609000027],[124.76987000100006,6.591636409000045],[125.002097305,6.534317616000066],[125.10553101800008,6.553659048000043],[125.0467900320001,6.668458753000038],[125.05218985600004,6.771758358000057],[125.00774339400006,6.734105528000044]]]}},{"type":"Feature","properties":{"id":"sarangani","name":"Sarangani"},"geometry":{"type":"MultiPolygon","coordinates":[[[[125.23695430400005,6.095554413000058],[125.2919848030001,5.982389793000038],[125.1746176480001,5.797777429000064],[125.27792387900003,5.705713247000062],[125.39701450600013,5.679604112000049],[125.48315330700007,5.837673675000077],[125.48104653300004,5.908264889000064],[125.53856638300012,6.070512974000053],[125.50715002400011,6.149780337000037],[125.50458349500002,6.229850343000067],[125.47366583400003,6.295944447000067],[125.42545114400004,6.32412265100004],[125.39320607100002,6.503467441000057],[125.34045833300003,6.49375],[125.24867405900012,6.434868996000035],[125.20054683600007,6.461880608000056],[125.11303874600003,6.435048629000049],[125.24666173900005,6.263597311000069],[125.23695430400005,6.095554413000058]]],[[[125.10392874900003,5.955319112000039],[125.00603333200002,6.01072849600007],[124.84607298500009,6.013338533000023],[124.40645356900005,6.207580064000069],[124.36398694800006,6.115464183000029],[124.52080870600001,6.022002271000074],[124.82317743800003,5.889556564000032],[125.07134147000009,5.857381504000045],[125.10392874900003,5.955319112000039]]]]}},{"type":"Feature","properties":{"id":"metro-manila","name":"Metro Manila"},"geometry":{"type":"Polygon","coordinates":[[[120.99197344400011,14.636527028000048],[120.95779251100011,14.633909253000073],[120.98589039800005,14.560101142000061],[121.01761120300011,14.579408116000026],[120.99197344400011,14.636527028000048]]]}},{"type":"Feature","properties":{"id":"metro-manila","name":"Metro Manila"},"geometry":{"type":"Polygon","coordinates":[[[121.1033378410001,14.531997657000032],[121.0968965510001,14.569254547000074],[121.11044978200005,14.592235448000055],[121.10549838300007,14.632654354000065],[121.13486852100006,14.65885238300007],[121.11188912900003,14.671163089000059],[121.09972917900006,14.765222305000064],[120.99197344400011,14.636527028000048],[121.01761120300011,14.579408116000026],[121.1033378410001,14.531997657000032]]]}},{"type":"Feature","properties":{"id":"metro-manila","name":"Metro Manila"},"geometry":{"type":"Polygon","coordinates":[[[121.09972917900006,14.765222305000064],[121.02402399100004,14.763034879000028],[120.95312750500011,14.694240067000067],[120.95779251100011,14.633909253000073],[120.99197344400011,14.636527028000048],[121.09972917900006,14.765222305000064]]]}},{"type":"Feature","properties":{"id":"metro-manila","name":"Metro Manila"},"geometry":{"type":"Polygon","coordinates":[[[121.1033378410001,14.531997657000032],[121.01761120300011,14.579408116000026],[120.98589039800005,14.560101142000061],[120.9660033990001,14.465722366000023],[121.01161116900006,14.380260945000037],[121.00759085400011,14.355170370000051],[121.05150154700004,14.369658617000026],[121.1033378410001,14.531997657000032]]]}},{"type":"Feature","properties":{"id":"abra","name":"Abra"},"geometry":{"type":"Polygon","coordinates":[[[121.11067267300007,17.68489226900004],[120.9312599850001,17.973635974000043],[120.49781832400004,17.625130266000042],[120.80474638400005,17.17126978500005],[120.91189962700004,17.24891692500006],[121.11067267300007,17.68489226900004]]]}},{"type":"Feature","properties":{"id":"benguet","name":"Benguet"},"geometry":{"type":"Polygon","coordinates":[[[120.78527385300004,16.92133500700004],[120.58601613200004,16.836661373000027],[120.52020294500007,16.23344136100007],[120.76896590800004,16.19803365700005],[120.92950614800007,16.600053544000048],[120.89301445400008,16.821064410000073],[120.78527385300004,16.92133500700004]]]}},{"type":"Feature","properties":{"id":"ifugao","name":"Ifugao"},"geometry":{"type":"Polygon","coordinates":[[[121.567500181,17.07905657500004],[120.89301445400008,16.821064410000073],[120.92950614800007,16.600053544000048],[121.52132234000011,16.838934767000065],[121.567500181,17.07905657500004]]]}},{"type":"Feature","properties":{"id":"kalinga","name":"Kalinga"},"geometry":{"type":"Polygon","coordinates":[[[121.53451524700006,17.269512453000065],[121.43655489200012,17.693226160000044],[121.11067267300007,17.68489226900004],[120.91189962700004,17.24891692500006],[121.53451524700006,17.269512453000065]]]}},{"type":"Feature","properties":{"id":"mountain-province","name":"Mountain Province"},"geometry":{"type":"Polygon","coordinates":[[[121.53451524700006,17.269512453000065],[120.91189962700004,17.24891692500006],[120.80474638400005,17.17126978500005],[120.78527385300004,16.92133500700004],[120.89301445400008,16.821064410000073],[121.567500181,17.07905657500004],[121.53451524700006,17.269512453000065]]]}},{"type":"Feature","properties":{"id":"apayao","name":"Apayao"},"geometry":{"type":"Polygon","coordinates":[[[121.43655489200012,17.693226160000044],[121.48948360700003,18.23884498300003],[120.95867309800006,18.46320241200004],[120.9312599850001,17.973635974000043],[121.11067267300007,17.68489226900004],[121.43655489200012,17.693226160000044]]]}},{"type":"Feature","properties":{"id":"agusan-del-norte","name":"Agusan del Norte"},"geometry":{"type":"Polygon","coordinates":[[[125.74861908000004,9.32604026800004],[125.70017242400002,9.429679871000076],[125.55367266100006,9.46576910300007],[125.48573591200012,9.454060698000035],[125.45334763300004,9.439441353000063],[125.53595553400011,9.078500067000046],[125.42981770300004,8.975898016000029],[125.2787188530001,8.993020672000059],[125.20772470700001,9.093653081000067],[125.21767746800005,9.03047378100007],[125.2381393180001,8.987511528000027],[125.22444407900002,8.96754260100005],[125.22140040500007,8.921750022000028],[125.25092495400008,8.873843862000058],[125.24109649700007,8.840640068000027],[125.23621368400008,8.784649849000061],[125.23964481000007,8.719439959000058],[125.45696542300006,8.740408046000027],[125.66941123000004,8.701482917000021],[125.63598734500012,8.897580467000068],[125.69409436,8.948006512000063],[125.75605011000003,9.23001003300004],[125.74861908000004,9.32604026800004]]]}},{"type":"Feature","properties":{"id":"agusan-del-sur","name":"Agusan del Sur"},"geometry":{"type":"Polygon","coordinates":[[[126.22779055100011,8.000190630000077],[126.19962461600007,8.288008542000059],[126.01648076700008,8.499474956000027],[126.03465087000006,8.633442209000064],[125.89875851600004,8.869284020000066],[125.88502861000008,9.04740326700005],[125.75605011000003,9.23001003300004],[125.69409436,8.948006512000063],[125.63598734500012,8.897580467000068],[125.66941123000004,8.701482917000021],[125.45696542300006,8.740408046000027],[125.23964481000007,8.719439959000058],[125.24017963000007,8.668428995000054],[125.22644761300013,8.646580223000054],[125.19338500500008,8.61971369400004],[125.1711042160001,8.582282192000035],[125.26060613800007,8.579006867000032],[125.25254272100007,8.551628289000066],[125.24756096900012,8.47806955300007],[125.266307,8.438375],[125.28373433300011,8.42253622800007],[125.27526695500002,8.390871314000035],[125.2750800000001,8.354652],[125.308692973,8.311562027000036],[125.3398775820001,8.284365215000038],[125.34678330500005,8.232364682000021],[125.36471556900007,8.217653674000076],[125.36827841000002,8.18486486200004],[125.38380922100009,8.179686150000066],[125.43515705400011,8.10919805800006],[125.43694530500012,8.085885669000051],[125.4056280000001,8.076177],[125.37992309200003,8.042899480000074],[125.37505743800013,8.01498092600002],[125.37938892500007,8.003247176000059],[125.66104503500003,7.998152495000054],[125.7522891100001,7.983229664000022],[125.77558746000011,7.95192117500005],[125.78558119600008,7.948708904000059],[125.80568764200005,7.970124052000074],[125.85149226600005,7.96714972600006],[125.87623866000003,7.936216733000037],[125.90086608200012,7.930862946000047],[125.9175223090001,7.964770265000026],[125.911491,7.999984],[125.98004201000003,7.998677944000063],[125.9850969800001,7.977341296000077],[126.00489698100013,7.947741297000049],[126.04489698100008,7.932641297000036],[126.07292436000012,7.957943758000056],[126.11269120100009,7.982457178000059],[126.15782097100008,7.990592368000023],[126.20766344900005,7.985745608000057],[126.22779055100011,8.000190630000077]]]}},{"type":"Feature","properties":{"id":"surigao-del-norte","name":"Surigao del Norte"},"geometry":{"type":"MultiPolygon","coordinates":[[[[126.06177888900005,10.062321934000066],[125.95206439100004,9.847666450000075],[126.0171723200001,9.753978619000067],[126.16362972600007,9.786971867000034],[126.06177888900005,10.062321934000066]]],[[[125.88395799400008,9.496625582000036],[125.64479942000003,9.607502422000039],[125.59459421200008,9.74052996900002],[125.44006926600002,9.795624873000062],[125.39166760300007,9.655114295000033],[125.45334763300004,9.439441353000063],[125.48573591200012,9.454060698000035],[125.55367266100006,9.46576910300007],[125.70017242400002,9.429679871000076],[125.74861908000004,9.32604026800004],[125.88395799400008,9.496625582000036]]]]}},{"type":"Feature","properties":{"id":"surigao-del-sur","name":"Surigao del Sur"},"geometry":{"type":"Polygon","coordinates":[[[126.22779055100011,8.000190630000077],[126.35158064300003,8.00206593700005],[126.35124641100005,7.933008011000028],[126.44148062500005,8.095238575000053],[126.43250766900007,8.235737746000042],[126.31874131100004,8.35226577100002],[126.38825097500013,8.512406566000037],[126.08321086900003,8.609678001000077],[126.33414753600005,8.840108694000039],[126.3066633430001,8.956143706000034],[126.15798473900009,9.10508573200002],[126.18105646200002,9.243395920000069],[126.056607073,9.233157799000026],[125.89438632500004,9.413590823000046],[125.88395799400008,9.496625582000036],[125.74861908000004,9.32604026800004],[125.75605011000003,9.23001003300004],[125.88502861000008,9.04740326700005],[125.89875851600004,8.869284020000066],[126.03465087000006,8.633442209000064],[126.01648076700008,8.499474956000027],[126.19962461600007,8.288008542000059],[126.22779055100011,8.000190630000077]]]}},{"type":"Feature","properties":{"id":"dinagat-islands","name":"Dinagat Islands"},"geometry":{"type":"Polygon","coordinates":[[[125.49896741500004,10.161806027000067],[125.48105318000013,10.104152954000028],[125.64560349700002,9.930891682000036],[125.69523458700007,10.047548144000073],[125.64730039500012,10.306486660000074],[125.51439362800011,10.298536205000062],[125.49896741500004,10.161806027000067]]]}},{"type":"Feature","properties":{"id":"marinduque","name":"Marinduque"},"geometry":{"type":"Polygon","coordinates":[[[122.025638834,13.198950266000056],[122.1281054420001,13.362364979000064],[122.10785701600004,13.476889477000041],[122.00885631500013,13.549470877000031],[121.81098010900007,13.44682584000003],[121.86182517300006,13.290177333000027],[122.025638834,13.198950266000056]]]}},{"type":"Feature","properties":{"id":"occidental-mindoro","name":"Occidental Mindoro"},"geometry":{"type":"Polygon","coordinates":[[[120.88377781900009,13.500751612000043],[120.76270750000003,13.464652527000053],[120.41326832000004,13.53084025500004],[120.48207239500005,13.293314112000074],[120.64790500700008,13.191938336000021],[120.76067512800012,13.002569031000064],[120.78899065000009,12.734430004000048],[120.93854947400007,12.58082537300004],[120.98010639300004,12.423448437000046],[121.24350371600008,12.207783105000033],[121.22949510200012,12.411468316000027],[121.261273361,12.694725695000047],[121.24088143300004,13.065091710000045],[121.11848852900006,13.105488950000051],[120.80067606600007,13.280248262000041],[120.88377781900009,13.500751612000043]]]}},{"type":"Feature","properties":{"id":"oriental-mindoro","name":"Oriental Mindoro"},"geometry":{"type":"Polygon","coordinates":[[[121.24350371600008,12.207783105000033],[121.386000641,12.318535017000045],[121.44315023000001,12.521801367000023],[121.55695189700008,12.60440721100002],[121.475935907,12.774380036000027],[121.4860682320001,12.99869095100007],[121.55833375500004,13.09583275600005],[121.43908012600002,13.149932461000047],[121.30427189000012,13.343813746000023],[121.1935514600001,13.423536272000035],[121.06271574900006,13.403941213000051],[120.88377781900009,13.500751612000043],[120.80067606600007,13.280248262000041],[121.11848852900006,13.105488950000051],[121.24088143300004,13.065091710000045],[121.261273361,12.694725695000047],[121.22949510200012,12.411468316000027],[121.24350371600008,12.207783105000033]]]}},{"type":"Feature","properties":{"id":"palawan","name":"Palawan"},"geometry":{"type":"MultiPolygon","coordinates":[[[[120.01551806700002,12.000373056000056],[120.14020857100002,12.023673349000033],[120.29131116900008,11.98340383400006],[120.33589454800006,12.073636676000035],[120.1621201710001,12.122399840000067],[120.00999376000004,12.255177644000073],[119.87823713600005,12.265373416000047],[119.97220210000012,12.024090578000028],[120.01551806700002,12.000373056000056]]],[[[120.06045469600006,11.797445666000044],[119.99879324400003,11.934264075000044],[119.89491204400008,11.861051845000075],[119.94631673900005,11.680562861000055],[120.06045469600006,11.797445666000044]]],[[[117.19226196500006,8.330327765000048],[117.3818652340001,8.492959833000043],[117.50114933200007,8.50105290500005],[117.57093423300013,8.675832001000058],[117.77935209600001,8.71418490800005],[118.00351801800004,8.881273704000021],[118.12201352600006,9.142825825000044],[118.34283907300006,9.17774418500005],[118.637806392,9.504737924000038],[118.76059294900006,9.666600343000027],[118.69166256000007,9.769642779000035],[118.7578691100001,9.932005317000062],[119.19711689400005,10.047823479000044],[119.30040233800004,10.284735903000069],[119.58813523700007,10.419817453000064],[119.670950016,10.54710449000004],[119.57478886800003,10.838432822000074],[119.48409554400007,10.873523718000056],[119.50051873100004,11.134188353000068],[119.56792755600009,11.291647956000078],[119.41683906900005,11.311305275000048],[119.41440237500002,11.036481427000068],[119.30854690400008,10.96366537700004],[119.37445840400007,10.861721478000046],[119.3182603890001,10.590779605000023],[119.17880912800001,10.415834208000039],[119.0201714630001,10.350146848000064],[118.93648759500002,10.20577775300006],[118.80608380800004,10.192632269000057],[118.61417441200001,9.888184416000056],[118.18613211200011,9.411007157000025],[118.01286308400006,9.24172399100007],[117.9059648860001,9.26118459600002],[117.77573074500003,9.164873870000065],[117.4909206640001,8.888314330000071],[117.22093743800009,8.525858490000074],[117.19226196500006,8.330327765000048]]],[[[119.80489726300004,10.441252330000053],[119.91260205800006,10.474648337000074],[119.983452972,10.599544904000027],[119.83413739000002,10.612596143000074],[119.80489726300004,10.441252330000053]]]]}},{"type":"Feature","properties":{"id":"romblon","name":"Romblon"},"geometry":{"type":"MultiPolygon","coordinates":[[[[121.96607144100004,12.208991590000041],[122.09777636900004,12.356581894000042],[122.12870171600002,12.663363838000064],[122.00174926200009,12.596791549000045],[122.01657862700007,12.494458204000068],[121.92227894500002,12.318436404000064],[121.96607144100004,12.208991590000041]]],[[[122.5444625,12.50563792200006],[122.45233277800004,12.395814121000056],[122.63406047700005,12.283697168000062],[122.6983129780001,12.39814877300006],[122.5444625,12.50563792200006]]]]}},{"type":"Feature","properties":{"id":"basilan","name":"Basilan"},"geometry":{"type":"Polygon","coordinates":[[[121.91717787000006,6.674741475000076],[121.79796654100004,6.598116452000056],[121.95543057300007,6.407615672000076],[122.19619455000009,6.468195124000032],[122.21212456100011,6.580898362000027],[122.04715818800001,6.749015081000039],[122.04289291400005,6.56481997900005],[121.93555574200003,6.570645760000048],[121.91717787000006,6.674741475000076]]]}},{"type":"Feature","properties":{"id":"lanao-del-sur","name":"Lanao del Sur"},"geometry":{"type":"Polygon","coordinates":[[[124.52804919700009,7.638289207000071],[124.59036584400009,7.609324928000033],[124.7402921920001,7.591068371000062],[124.79089464000003,7.542728348000025],[124.82628901900013,7.541656422000072],[124.81842655400008,7.594076047000047],[124.80512258100009,7.622628351000059],[124.76354225800004,7.647100545000057],[124.7433125890001,7.698349593000046],[124.72852694100006,7.720516810000047],[124.73141648500007,7.745150887000022],[124.68825885600008,7.79036404900006],[124.6638390280001,7.834204876000058],[124.63177669800007,7.84637240400002],[124.61878716900004,7.887981693000029],[124.60192866200009,7.909914519000039],[124.56253066200009,7.98184142100007],[124.56478764500004,7.994089863000054],[124.54800408600009,8.029671450000023],[124.54747900400004,8.064921644000039],[124.52560673000004,8.108390977000054],[124.48026881700002,8.162042287000075],[124.45554609600005,8.13293686700007],[124.43501488000004,8.128414759000064],[124.37657102300012,8.158134573000043],[124.37347789400009,8.12725930700003],[124.33770848200002,8.10247530300006],[124.3318176910001,8.073890680000034],[124.28842639200002,8.056473836000064],[124.25137964700002,8.066451624000024],[124.21234011800006,8.067705201000024],[124.21195258600004,8.048658225000056],[124.19412436100004,8.021356720000028],[124.1576227700001,8.033463527000038],[124.11135055800004,8.021062870000035],[124.1143295060001,7.985754760000019],[124.10163486000012,7.96445142400006],[124.03081920000012,7.952898652000045],[123.98784113600004,7.935095518000024],[123.97742153800004,7.892975554000032],[123.97368923300009,7.874036868000074],[123.99573031600005,7.838661307000053],[124.02390819500012,7.828601493000061],[123.99551305900002,7.785322082000049],[124.00162475900004,7.742659211000047],[123.95932336000011,7.724984796000059],[123.90294426500009,7.729355503000024],[123.87027291100003,7.738132882000057],[123.85993317800002,7.714928050000026],[124.01195565400008,7.647784533000047],[124.1867093530001,7.412033425000059],[124.25133853700005,7.557921067000053],[124.52804919700009,7.638289207000071]]]}},{"type":"Feature","properties":{"id":"sulu","name":"Sulu"},"geometry":{"type":"Polygon","coordinates":[[[121.28428908500007,5.859447009000062],[121.39420768800005,6.010007735000043],[121.20498286200007,5.996685564000074],[121.15397972900008,6.077723048000053],[121.02710871500005,6.090094683000075],[120.8733066860001,5.954409310000072],[120.94162287400003,5.890673684000034],[121.18220545000008,5.934443929000053],[121.28428908500007,5.859447009000062]]]}},{"type":"Feature","properties":{"id":"tawi-tawi","name":"Tawi-Tawi"},"geometry":{"type":"Polygon","coordinates":[[[119.81188366100001,5.122985683000024],[119.96110686900009,5.07724598200002],[120.03476198100009,5.179053212000042],[120.21814267200013,5.147559659000024],[120.254976499,5.256597223000028],[120.17592999400007,5.344557723000036],[119.81188366100001,5.122985683000024]]]}},{"type":"Feature","properties":{"id":"maguindanao","name":"Maguindanao"},"geometry":{"type":"Polygon","coordinates":[[[124.39602007500004,7.355388001000049],[124.48528910200002,7.438605069000062],[124.52804919700009,7.638289207000071],[124.25133853700005,7.557921067000053],[124.1867093530001,7.412033425000059],[124.20729837300007,7.25052183300005],[124.06742696100004,7.145391349000023],[123.99272356900009,7.021412233000034],[123.95301474100006,6.819498804000032],[124.12713724600007,6.746921562000068],[124.14351930700002,6.936219677000055],[124.34081419600012,7.009131247000027],[124.43223825500002,7.088788390000047],[124.36626343700006,7.235560970000052],[124.39602007500004,7.355388001000049]]]}},{"type":"Feature","properties":{"id":"maguindanao","name":"Maguindanao"},"geometry":{"type":"Polygon","coordinates":[[[124.8252119780001,7.062747508000031],[124.73279874600007,7.09660691500005],[124.67877487900012,6.94660172500005],[124.58488102700005,6.970634080000026],[124.43223825500002,7.088788390000047],[124.34081419600012,7.009131247000027],[124.14351930700002,6.936219677000055],[124.12713724600007,6.746921562000068],[124.21014178100008,6.743249806000051],[124.27895399600006,6.69617573000005],[124.41355869200004,6.727836713000043],[124.51614574200006,6.727932620000047],[124.50931452600003,6.772891965000042],[124.57833560200004,6.783005277000029],[124.58028927100008,6.850143099000037],[124.63372708500003,6.887706705000027],[124.71708527800003,6.810847400000056],[124.78709570600004,6.67697144300007],[124.77892310100003,6.623288442000046],[124.86302203700006,6.60862987300004],[124.88680814300004,6.677562946000023],[125.00774339400006,6.734105528000044],[124.95268549500008,6.784597325000049],[124.82249612600003,6.794133661000046],[124.80548632600005,6.841646872000068],[124.82383263900012,6.949087778000034],[124.8252119780001,7.062747508000031]]]}},{"type":"Feature","properties":{"id":"batanes","name":"Batanes"},"geometry":{"type":"Polygon","coordinates":[[[121.91524715200002,20.355675892000026],[121.95030493400009,20.348728030000075],[121.98071256100002,20.38329184900004],[121.9624234910001,20.41261390800003],[121.91524715200002,20.355675892000026]]]}},{"type":"Feature","properties":{"id":"cagayan","name":"Cagayan"},"geometry":{"type":"MultiPolygon","coordinates":[[[[121.85594979400003,18.812052408000053],[121.99294018800003,18.958930634000073],[121.89702695500011,19.00125293600007],[121.85594979400003,18.812052408000053]]],[[[122.17296890000013,17.58454244400002],[122.13990921300002,17.802975500000056],[122.18835812100008,18.01631366800007],[122.33747537500005,18.308790129000048],[122.22375948100013,18.522506965000044],[122.131934612,18.388181351000068],[121.93385582600003,18.266702418000023],[121.60640043900004,18.371869421000042],[121.09748466400005,18.626217995000044],[120.97645367700012,18.568958937000048],[120.96914518200002,18.510116371000038],[120.95867309800006,18.46320241200004],[121.15600338400009,18.543774998000064],[121.22654139600003,18.43647132900003],[121.4023827430001,18.340896047000054],[121.48948360700003,18.23884498300003],[121.46035909600005,18.049410337000037],[121.36446941600003,18.061619119000056],[121.35745211900009,17.922368543000058],[121.32155435200002,17.80423081600002],[121.38829731500005,17.793630291000053],[121.42825329100003,17.72960822100004],[121.43675604700002,17.671347725000036],[121.449612956,17.661005241000055],[121.4663220020001,17.67232157400002],[121.48512366300008,17.647321689000027],[121.49661415900005,17.591042718000036],[121.546723013,17.580621351000048],[121.64723067800004,17.50048373000004],[122.17296890000013,17.58454244400002]]]]}},{"type":"Feature","properties":{"id":"isabela","name":"Isabela"},"geometry":{"type":"Polygon","coordinates":[[[122.17296890000013,17.58454244400002],[121.64723067800004,17.50048373000004],[121.5387001150001,17.317268562000038],[121.56139800500011,17.183361080000054],[121.57149082100013,17.040943460000054],[121.56822243500005,16.909511535000032],[121.52132234000011,16.838934767000065],[121.33865075400001,16.75348573900003],[121.44575299200004,16.634300799000066],[121.55481491400006,16.628912362000047],[121.74500357300008,16.393169809000025],[122.05880819100003,16.50925477800007],[122.21427288000007,16.47984429100006],[122.29826674100002,16.55179161800004],[122.43348266200009,16.797123175000028],[122.51501961200006,17.136765427000057],[122.41855300600002,17.138062347000073],[122.39356083700011,17.322508150000033],[122.28750753300007,17.338946431000068],[122.17296890000013,17.58454244400002]]]}},{"type":"Feature","properties":{"id":"nueva-vizcaya","name":"Nueva Vizcaya"},"geometry":{"type":"Polygon","coordinates":[[[121.44575299200004,16.634300799000066],[121.33865075400001,16.75348573900003],[121.25928948300007,16.65178447000005],[120.92950614800007,16.600053544000048],[120.84552298100004,16.319500078000026],[120.76896590800004,16.19803365700005],[120.84150888600004,16.168612326000076],[120.87044651800012,16.118870179000055],[121.04773934000002,16.137989391000076],[121.17424918400003,16.090108902000054],[121.19399818500007,15.922087606000046],[121.28033899700006,15.767132018000035],[121.31771017400001,15.804652432000069],[121.47114962000002,15.886741050000069],[121.46354426900007,15.926616156000026],[121.3407596090001,16.021969981000037],[121.28703627500012,16.148544101000024],[121.520757752,16.339014960000043],[121.376865703,16.451005424000073],[121.44575299200004,16.634300799000066]]]}},{"type":"Feature","properties":{"id":"quirino","name":"Quirino"},"geometry":{"type":"Polygon","coordinates":[[[122.05880819100003,16.50925477800007],[121.74500357300008,16.393169809000025],[121.55481491400006,16.628912362000047],[121.44575299200004,16.634300799000066],[121.376865703,16.451005424000073],[121.520757752,16.339014960000043],[121.28703627500012,16.148544101000024],[121.3407596090001,16.021969981000037],[121.46354426900007,15.926616156000026],[121.4745488740001,15.92984777800007],[121.52882642900009,15.969868599000048],[121.62897873000009,16.063865467000024],[121.84589590900009,16.249155589000054],[122.05880819100003,16.50925477800007]]]}},{"type":"Feature","properties":{"id":"bataan","name":"Bataan"},"geometry":{"type":"Polygon","coordinates":[[[120.55426459000012,14.820737035000036],[120.46126986800006,14.921266418000073],[120.34119403900002,14.857304444000023],[120.2782164140001,14.73891010900007],[120.39280916200006,14.587940439000025],[120.38853580900002,14.460073983000026],[120.55401782400008,14.422366258000064],[120.608716791,14.478447205000064],[120.55426459000012,14.820737035000036]]]}},{"type":"Feature","properties":{"id":"bulacan","name":"Bulacan"},"geometry":{"type":"Polygon","coordinates":[[[121.31215264300012,15.198769701000064],[121.18592226200008,15.265765786000035],[120.92865891600002,15.216318620000036],[120.87914163500011,14.982093235000042],[120.74316107100003,14.93094760900004],[120.6872372130001,14.770876218000069],[120.95312750500011,14.694240067000067],[121.02402399100004,14.763034879000028],[121.16528463600002,14.823417534000043],[121.20804184000006,14.81794121400003],[121.33035662500004,14.834802543000022],[121.3401122450001,14.886441354000056],[121.34785653300003,14.996370968000065],[121.31215264300012,15.198769701000064]]]}},{"type":"Feature","properties":{"id":"nueva-ecija","name":"Nueva Ecija"},"geometry":{"type":"Polygon","coordinates":[[[121.28476349300001,15.754418537000051],[121.28033899700006,15.767132018000035],[121.19399818500007,15.922087606000046],[121.17424918400003,16.090108902000054],[121.04773934000002,16.137989391000076],[120.87044651800012,16.118870179000055],[120.8961103580001,16.042520563000043],[120.92052940700013,15.966318216000047],[120.81905751900001,15.793215701000065],[120.69093991600005,15.831160646000058],[120.6150636640001,15.815561238000045],[120.76236231700011,15.417785005000042],[120.73421095200001,15.277158338000046],[120.86542324400013,15.176232549000078],[120.92865891600002,15.216318620000036],[121.18592226200008,15.265765786000035],[121.31215264300012,15.198769701000064],[121.378521524,15.485011371000047],[121.28476349300001,15.754418537000051]]]}},{"type":"Feature","properties":{"id":"pampanga","name":"Pampanga"},"geometry":{"type":"Polygon","coordinates":[[[120.73421095200001,15.277158338000046],[120.547660768,15.254440064000052],[120.36759662500005,15.167097115000045],[120.46126986800006,14.921266418000073],[120.55426459000012,14.820737035000036],[120.6872372130001,14.770876218000069],[120.74316107100003,14.93094760900004],[120.87914163500011,14.982093235000042],[120.92865891600002,15.216318620000036],[120.86542324400013,15.176232549000078],[120.73421095200001,15.277158338000046]]]}},{"type":"Feature","properties":{"id":"tarlac","name":"Tarlac"},"geometry":{"type":"Polygon","coordinates":[[[120.6150636640001,15.815561238000045],[120.6036309120001,15.860894016000035],[120.58036818900007,15.82990640500003],[120.46759425200003,15.722242866000038],[120.36227633300007,15.735466716000072],[120.2528567830001,15.617769571000052],[120.16519461000007,15.36177375200003],[120.28224524300005,15.289590427000064],[120.36759662500005,15.167097115000045],[120.547660768,15.254440064000052],[120.73421095200001,15.277158338000046],[120.76236231700011,15.417785005000042],[120.6150636640001,15.815561238000045]]]}},{"type":"Feature","properties":{"id":"zambales","name":"Zambales"},"geometry":{"type":"Polygon","coordinates":[[[120.2528567830001,15.617769571000052],[120.14429317400004,15.82619759400006],[120.01961753400008,15.872207125000045],[119.90178234300005,15.807124243000034],[119.90220778300012,15.40713038100006],[120.0162021110001,15.264447562000045],[120.0595993190001,15.061823844000061],[120.0543201800001,14.893539052000055],[120.14846895800007,14.756340142000056],[120.2782164140001,14.73891010900007],[120.34119403900002,14.857304444000023],[120.46126986800006,14.921266418000073],[120.36759662500005,15.167097115000045],[120.28224524300005,15.289590427000064],[120.16519461000007,15.36177375200003],[120.2528567830001,15.617769571000052]]]}},{"type":"Feature","properties":{"id":"aurora","name":"Aurora"},"geometry":{"type":"Polygon","coordinates":[[[121.34785653300003,14.996370968000065],[121.35137018900002,15.035906006000063],[121.37400455200009,15.095887405000038],[121.39460381500011,15.105961485000027],[121.40809682500004,15.182936998000056],[121.37299956800008,15.32171117700005],[121.4730592630001,15.41668181400007],[121.49270334000005,15.520978898000068],[121.61703790600006,15.657411187000035],[121.554405502,15.897447717000034],[121.75789200800011,16.076082430000042],[121.96712696700003,16.136384588000052],[122.22509413500006,16.35704965000002],[122.21427288000007,16.47984429100006],[122.05880819100003,16.50925477800007],[121.84589590900009,16.249155589000054],[121.62897873000009,16.063865467000024],[121.52882642900009,15.969868599000048],[121.4745488740001,15.92984777800007],[121.47114962000002,15.886741050000069],[121.31771017400001,15.804652432000069],[121.28476349300001,15.754418537000051],[121.378521524,15.485011371000047],[121.31215264300012,15.198769701000064],[121.34785653300003,14.996370968000065]]]}},{"type":"Feature","properties":{"id":"batangas","name":"Batangas"},"geometry":{"type":"Polygon","coordinates":[[[120.618347222,14.220246020000047],[120.62210515900006,13.811289915000033],[120.74099969100006,13.936309202000075],[120.8786935820001,13.901967501000058],[120.92845353400004,13.779915285000072],[121.29475417100004,13.601113575000054],[121.39153220100002,13.671445562000027],[121.45665641300002,13.818242209000058],[121.27160968300007,13.878059858000029],[121.24647366500005,13.963490883000073],[121.19440848600004,14.131070861000065],[121.03586636200009,14.151780380000046],[120.84485636600004,14.07683931200006],[120.618347222,14.220246020000047]]]}},{"type":"Feature","properties":{"id":"cavite","name":"Cavite"},"geometry":{"type":"Polygon","coordinates":[[[121.01623891600002,14.351821071000073],[121.00759085400011,14.355170370000051],[121.01161116900006,14.380260945000037],[120.9660033990001,14.465722366000023],[120.87049060100001,14.430223676000022],[120.618347222,14.220246020000047],[120.84485636600004,14.07683931200006],[121.03586636200009,14.151780380000046],[121.01623891600002,14.351821071000073]]]}},{"type":"Feature","properties":{"id":"laguna","name":"Laguna"},"geometry":{"type":"Polygon","coordinates":[[[121.24647366500005,13.963490883000073],[121.47859448800013,14.064792674000042],[121.61794271500004,14.234942428000066],[121.57002646300009,14.398442990000037],[121.45105053500004,14.59521547800006],[121.3617534770001,14.477181419000031],[121.380494558,14.33794374300004],[121.30403818800004,14.203344473000072],[121.21240129700004,14.178625803000045],[121.05150154700004,14.369658617000026],[121.01623891600002,14.351821071000073],[121.03586636200009,14.151780380000046],[121.19440848600004,14.131070861000065],[121.24647366500005,13.963490883000073]]]}},{"type":"Feature","properties":{"id":"quezon","name":"Quezon"},"geometry":{"type":"MultiPolygon","coordinates":[[[[121.45665641300002,13.818242209000058],[121.71564828000011,13.970735347000073],[122.13205865500002,13.745047551000027],[122.20757719100004,13.602519683000024],[122.40071531400008,13.523970588000052],[122.51616277000005,13.350051128000075],[122.50319771900001,13.246563469000021],[122.598782678,13.162089163000074],[122.70200340000008,13.223594096000056],[122.63422480100007,13.528953963000047],[122.52707417300009,13.613742401000023],[122.52128139600006,13.744645658000024],[122.45138254200003,13.905343278000034],[122.55241423100006,13.947554817000027],[122.6201502670001,13.967995488000044],[122.66522009700009,13.983192314000064],[122.79251799700013,14.013752262000024],[122.71850226100004,14.042740808000076],[122.64161751700009,14.070068482000066],[122.538911374,14.116739880000067],[122.44662851400004,14.135111727000034],[122.40846578100002,14.090570177000075],[122.36204661600006,14.062866015000052],[122.32626999400009,14.06270484200007],[122.29877357100008,14.072661698000047],[122.23162079100008,13.89515192400006],[121.907282871,14.01107543100005],[121.74884068100005,14.145731341000042],[121.75812446200007,14.247578691000056],[121.66331853600003,14.392045971000071],[121.60862523000003,14.599226437000024],[121.70985591200008,14.726129045000052],[121.60210874300002,14.827585130000045],[121.48093849800013,15.180228622000074],[121.40809682500004,15.182936998000056],[121.39460381500011,15.105961485000027],[121.37400455200009,15.095887405000038],[121.35137018900002,15.035906006000063],[121.34785653300003,14.996370968000065],[121.3401122450001,14.886441354000056],[121.33035662500004,14.834802543000022],[121.35387583300009,14.722557836000023],[121.45105053500004,14.59521547800006],[121.57002646300009,14.398442990000037],[121.61794271500004,14.234942428000066],[121.47859448800013,14.064792674000042],[121.24647366500005,13.963490883000073],[121.27160968300007,13.878059858000029],[121.45665641300002,13.818242209000058]]],[[[121.93493514700005,15.058643889000052],[121.81999082100003,14.936966738000026],[121.93655507900009,14.72910940100007],[122.03641732000006,14.717337928000063],[121.9975558320001,15.04428848300006],[121.93493514700005,15.058643889000052]]]]}},{"type":"Feature","properties":{"id":"rizal","name":"Rizal"},"geometry":{"type":"Polygon","coordinates":[[[121.45105053500004,14.59521547800006],[121.35387583300009,14.722557836000023],[121.33035662500004,14.834802543000022],[121.20804184000006,14.81794121400003],[121.16528463600002,14.823417534000043],[121.11188912900003,14.671163089000059],[121.13486852100006,14.65885238300007],[121.10549838300007,14.632654354000065],[121.11044978200005,14.592235448000055],[121.0968965510001,14.569254547000074],[121.18476833500006,14.483051347000067],[121.27457867700002,14.503246765000029],[121.380494558,14.33794374300004],[121.3617534770001,14.477181419000031],[121.45105053500004,14.59521547800006]]]}},{"type":"Feature","properties":{"id":"albay","name":"Albay"},"geometry":{"type":"Polygon","coordinates":[[[123.60125067900003,13.522687456000027],[123.57150571400007,13.365336622000026],[123.37317003100007,13.33751864900006],[123.3526878670001,13.306672606000062],[123.28127328200003,13.258541065000031],[123.31953698200006,13.006877386000046],[123.48226570000008,12.988444596000024],[123.71473746600009,13.039926492000063],[123.76765605700007,12.986184890000061],[123.9155897280001,13.054929226000066],[123.92676515300003,13.120887665000055],[123.7526960450001,13.090351708000073],[123.7415387000001,13.33292896600005],[123.60125067900003,13.522687456000027]]]}},{"type":"Feature","properties":{"id":"camarines-norte","name":"Camarines Norte"},"geometry":{"type":"Polygon","coordinates":[[[123.06069556700004,13.837581502000035],[123.07901614900004,13.986595491000061],[122.86341388300002,14.271056222000025],[122.50931740800002,14.344450388000038],[122.41895649700008,14.310201145000066],[122.29877357100008,14.072661698000047],[122.32626999400009,14.06270484200007],[122.36204661600006,14.062866015000052],[122.40846578100002,14.090570177000075],[122.44662851400004,14.135111727000034],[122.538911374,14.116739880000067],[122.64161751700009,14.070068482000066],[122.71850226100004,14.042740808000076],[122.79251799700013,14.013752262000024],[123.06069556700004,13.837581502000035]]]}},{"type":"Feature","properties":{"id":"camarines-sur","name":"Camarines Sur"},"geometry":{"type":"Polygon","coordinates":[[[123.60125067900003,13.522687456000027],[123.53850233800007,13.638013302000042],[123.58691885900008,13.729737583000029],[123.82573395500005,13.692428557000028],[123.94084194600008,13.79512832000006],[123.75497428300001,13.868205066000028],[123.51721068500002,13.91881076100003],[123.34882830900006,14.010682921000065],[123.28463105800007,13.932864109000036],[123.323293078,13.819436554000047],[123.22932266500005,13.729124393000063],[123.11508652200007,13.728059541000048],[123.06069556700004,13.837581502000035],[122.79251799700013,14.013752262000024],[122.66522009700009,13.983192314000064],[122.6201502670001,13.967995488000044],[122.55241423100006,13.947554817000027],[122.86202012100011,13.68971127200007],[122.88821281900005,13.57615427500002],[123.1564791080001,13.456053425000052],[123.28127328200003,13.258541065000031],[123.3526878670001,13.306672606000062],[123.37317003100007,13.33751864900006],[123.57150571400007,13.365336622000026],[123.60125067900003,13.522687456000027]]]}},{"type":"Feature","properties":{"id":"catanduanes","name":"Catanduanes"},"geometry":{"type":"Polygon","coordinates":[[[124.20623305500011,14.100054783000074],[124.13971512400009,14.01327862200003],[124.13610895600004,13.797710867000031],[124.06893563900007,13.604173915000047],[124.18506637300005,13.522798058000033],[124.31187109400001,13.588708334000048],[124.38908751300006,13.691667916000027],[124.41586343000004,13.858329317000027],[124.32073555000012,13.910057338000058],[124.20623305500011,14.100054783000074]]]}},{"type":"Feature","properties":{"id":"masbate","name":"Masbate"},"geometry":{"type":"Polygon","coordinates":[[[124.0634376060001,11.720654878000063],[124.02729179800006,12.00400424000003],[123.88152324400006,12.219732537000025],[123.74442096200005,12.252371287000072],[123.44361442800003,12.51693667300003],[123.23405885300009,12.58941899900003],[123.28763295800003,12.421307737000062],[123.22771504700006,12.279396516000077],[123.28546782300008,12.219182518000023],[123.14377318400011,11.93610079800004],[123.30204923100007,12.028500114000051],[123.42724048700005,12.19969145500005],[123.53229312300004,12.21283009800004],[123.72180201300012,11.931963258000053],[123.83870914200008,11.909778483000027],[124.0634376060001,11.720654878000063]]]}},{"type":"Feature","properties":{"id":"sorsogon","name":"Sorsogon"},"geometry":{"type":"Polygon","coordinates":[[[123.48226570000008,12.988444596000024],[123.59360334500003,12.902323789000032],[123.80622406400005,12.86608856200007],[123.87509012600005,12.65531693500003],[123.98787217900006,12.546211454000055],[124.0976451450001,12.556532570000059],[124.15156398700005,12.861752188000025],[124.09697717400003,13.015240425000057],[123.92676515300003,13.120887665000055],[123.9155897280001,13.054929226000066],[123.76765605700007,12.986184890000061],[123.71473746600009,13.039926492000063],[123.48226570000008,12.988444596000024]]]}},{"type":"Feature","properties":{"id":"aklan","name":"Aklan"},"geometry":{"type":"Polygon","coordinates":[[[122.57735727300008,11.553467966000028],[122.48579240900006,11.559741923000043],[122.33130037,11.735422485000072],[122.09948816500003,11.830272682000043],[121.97380907500006,11.920085119000019],[121.88707202000012,11.899884822000045],[121.84359594500006,11.764169970000067],[121.99037648900003,11.827633858000071],[122.15647591200002,11.756762532000039],[122.1341435800001,11.473020229000038],[122.19990772800008,11.311955905000046],[122.27312304000009,11.329970397000066],[122.40507282600005,11.47768442800003],[122.57735727300008,11.553467966000028]]]}},{"type":"Feature","properties":{"id":"antique","name":"Antique"},"geometry":{"type":"Polygon","coordinates":[[[122.19990772800008,11.311955905000046],[122.1341435800001,11.473020229000038],[122.15647591200002,11.756762532000039],[121.99037648900003,11.827633858000071],[121.84359594500006,11.764169970000067],[122.06874017900009,11.73872911500007],[122.10152019400003,11.652800988000024],[122.02710348000006,11.298443717000055],[122.05398686700005,11.03346733700005],[121.923126367,10.76335135800002],[121.97808132300007,10.675039620000065],[121.9127139530001,10.44640674200002],[122.03028776500003,10.466848482000046],[122.06518785800006,10.680676879000034],[122.17497210800003,10.755996189000026],[122.31246292500009,10.958055645000059],[122.23994482700006,11.133468934000064],[122.19990772800008,11.311955905000046]]]}},{"type":"Feature","properties":{"id":"capiz","name":"Capiz"},"geometry":{"type":"Polygon","coordinates":[[[123.09762898100007,11.544387227000072],[122.91650643700007,11.482409626000047],[122.82599177700001,11.61056154500005],[122.57735727300008,11.553467966000028],[122.40507282600005,11.47768442800003],[122.27312304000009,11.329970397000066],[122.19990772800008,11.311955905000046],[122.23994482700006,11.133468934000064],[122.32565518700004,11.22494626200006],[122.49446570000009,11.17844518000004],[122.58331594500011,11.25789224300007],[122.77226190300006,11.227241049000042],[122.93090437300009,11.29774797300007],[123.0350895590001,11.39518632800002],[123.09762898100007,11.544387227000072]]]}},{"type":"Feature","properties":{"id":"iloilo","name":"Iloilo"},"geometry":{"type":"Polygon","coordinates":[[[122.03028776500003,10.466848482000046],[122.10592032000012,10.583387237000064],[122.28158777100009,10.659157515000059],[122.58091882800011,10.687589006000053],[122.61145205100001,10.774782222000056],[122.73420064200002,10.785963645000038],[122.7817240280001,10.98792534300003],[122.95232525100006,11.033694352000055],[123.0937656660001,11.223962005000033],[123.15991416400004,11.475432672000068],[123.09762898100007,11.544387227000072],[123.0350895590001,11.39518632800002],[122.93090437300009,11.29774797300007],[122.77226190300006,11.227241049000042],[122.58331594500011,11.25789224300007],[122.49446570000009,11.17844518000004],[122.32565518700004,11.22494626200006],[122.23994482700006,11.133468934000064],[122.31246292500009,10.958055645000059],[122.17497210800003,10.755996189000026],[122.06518785800006,10.680676879000034],[122.03028776500003,10.466848482000046]]]}},{"type":"Feature","properties":{"id":"negros-occidental","name":"Negros Occidental"},"geometry":{"type":"Polygon","coordinates":[[[123.33591507200003,10.382476470000029],[123.4491583360001,10.505254191000061],[123.56827832600004,10.794357373000025],[123.51451924900003,10.918123327000046],[123.19567760300004,11.003010359000028],[123.07558634300005,10.915364707000036],[122.95728674700003,10.896418433000068],[122.96808340100007,10.795079292000024],[122.91446952700005,10.605416661000048],[122.79567834500007,10.522731827000031],[122.86607087200002,10.355070062000035],[122.85942301900002,10.093407432000047],[122.6554276510001,9.976098191000062],[122.45210660500004,9.976125470000053],[122.40110146800009,9.814947174000054],[122.40839249600005,9.659435950000043],[122.59290813500002,9.463638548000059],[122.98320250300004,9.912625363000075],[123.11066842700008,10.165420105000065],[123.13651653700003,10.198260696000034],[123.18145967400007,10.322771078000073],[123.18321414700006,10.358187988000054],[123.14432497400004,10.434843284000067],[123.21869044600011,10.439600951000045],[123.33591507200003,10.382476470000029]]]}},{"type":"Feature","properties":{"id":"guimaras","name":"Guimaras"},"geometry":{"type":"Polygon","coordinates":[[[122.48582236100003,10.463718339000025],[122.62565187400003,10.434314450000043],[122.72498683100002,10.615046608000055],[122.65787842500002,10.75402240000005],[122.52727010200012,10.615002864000074],[122.48582236100003,10.463718339000025]]]}},{"type":"Feature","properties":{"id":"bohol","name":"Bohol"},"geometry":{"type":"Polygon","coordinates":[[[124.28993463000008,10.173635970000023],[124.14750504200003,10.14923360900002],[124.04412268900013,9.98789057300007],[123.86670826500007,9.910778740000067],[123.7874646150001,9.739125933000023],[123.85464910200005,9.637559059000068],[124.10498909800003,9.590027331000043],[124.39899260800009,9.652581916000033],[124.59073793200002,9.811160848000041],[124.54697681300001,10.040945973000023],[124.28993463000008,10.173635970000023]]]}},{"type":"Feature","properties":{"id":"cebu","name":"Cebu"},"geometry":{"type":"Polygon","coordinates":[[[123.9205406430001,11.003489784000065],[123.86899059300002,10.837254084000053],[123.75538797800004,10.644802013000058],[123.66648926800008,10.412797987000035],[123.59198590800008,10.347928760000057],[123.517171994,10.152701905000072],[123.36624215000006,9.946393581000052],[123.29639564300011,9.479893391000077],[123.35391478400005,9.425333773000034],[123.469325,9.578842],[123.60821,9.874482],[123.641221533,10.084698843000071],[123.76788226800011,10.227345249000052],[123.96781218700005,10.32984470300005],[124.03221285300005,10.496692966000067],[124.01025891000008,10.768489441000042],[124.05372559200009,10.879699927000047],[124.03730941800006,11.039767414000037],[123.9205406430001,11.003489784000065]]]}},{"type":"Feature","properties":{"id":"negros-oriental","name":"Negros Oriental"},"geometry":{"type":"Polygon","coordinates":[[[123.33591507200003,10.382476470000029],[123.21869044600011,10.439600951000045],[123.14432497400004,10.434843284000067],[123.18321414700006,10.358187988000054],[123.18145967400007,10.322771078000073],[123.13651653700003,10.198260696000034],[123.11066842700008,10.165420105000065],[122.98320250300004,9.912625363000075],[122.59290813500002,9.463638548000059],[122.67439553500003,9.379782497000065],[122.86485282100011,9.328934969000043],[122.93508974300005,9.085826666000061],[123.01498644000003,9.03846143000004],[123.20225628400011,9.093765278000035],[123.31170202400006,9.29949504000007],[123.10757373000001,9.628465969000047],[123.160659892,9.70796907700003],[123.14689798100005,9.891975764000051],[123.22820582400004,10.003779055000054],[123.33149030300002,10.278055396000072],[123.33591507200003,10.382476470000029]]]}},{"type":"Feature","properties":{"id":"siquijor","name":"Siquijor"},"geometry":{"type":"Polygon","coordinates":[[[123.61239589600007,9.30092853700006],[123.45610420000004,9.182807139000033],[123.58708359100002,9.095770904000064],[123.6812755860001,9.121173439000074],[123.61239589600007,9.30092853700006]]]}},{"type":"Feature","properties":{"id":"eastern-samar","name":"Eastern Samar"},"geometry":{"type":"Polygon","coordinates":[[[125.32313117600008,12.28218463400003],[125.16829145700002,12.282900013000074],[125.1274242920001,12.17881031200005],[125.2688080260001,11.827750626000066],[125.28287505800004,11.675657267000075],[125.21038826200002,11.550841041000067],[125.2466330740001,11.122447398000071],[125.50133059300003,11.09291869100002],[125.54794909100008,11.260548266000058],[125.6324447720001,11.337010986000053],[125.5080987780001,11.46216744000003],[125.43970095100009,11.619645211000032],[125.48437965100005,11.681775144000026],[125.4225547650001,11.92998461500002],[125.50206461200004,12.05202369500006],[125.51498085200002,12.192380454000043],[125.42511559000002,12.277924681000059],[125.32313117600008,12.28218463400003]]]}},{"type":"Feature","properties":{"id":"leyte","name":"Leyte"},"geometry":{"type":"Polygon","coordinates":[[[125.17386775300008,10.600700517000062],[125.02619221500004,10.729255312000019],[125.0256393310001,11.196402895000066],[124.96427372700008,11.272813723000066],[124.9799850720001,11.39922821600004],[124.80873229000007,11.412520479000019],[124.69429143800006,11.302004663000046],[124.58471319600005,11.304962116000068],[124.53631535700003,11.424557623000052],[124.28994211200006,11.49450710100007],[124.39865849900004,11.236592038000026],[124.37916667600007,11.060986487000038],[124.47914834400002,10.86514389900003],[124.59719842900006,11.012839283000066],[124.78330377200007,10.774516198000072],[124.80345768300002,10.658990597000068],[124.72320625800012,10.40511734100005],[124.79130703400006,10.30199402200003],[124.75392597100006,10.18592387600006],[124.90931299800002,10.278708334000044],[124.90562934700006,10.503658593000068],[125.07766168000012,10.525729142000044],[125.17386775300008,10.600700517000062]]]}},{"type":"Feature","properties":{"id":"northern-samar","name":"Northern Samar"},"geometry":{"type":"Polygon","coordinates":[[[125.32313117600008,12.28218463400003],[125.31095602200003,12.397467577000043],[125.15158693500007,12.574036881000039],[124.953614764,12.578528737000058],[124.85757044200011,12.532977747000071],[124.6330521650001,12.508202337000055],[124.39234447800004,12.551534275000055],[124.2628046330001,12.544582078000074],[124.35739338700012,12.281708523000077],[124.47708579200001,12.34096342300006],[124.62653126700002,12.228430569000066],[124.70963361000008,12.27783331200004],[124.84402041200009,12.217657946000033],[125.16829145700002,12.282900013000074],[125.32313117600008,12.28218463400003]]]}},{"type":"Feature","properties":{"id":"samar","name":"Samar"},"geometry":{"type":"Polygon","coordinates":[[[125.16829145700002,12.282900013000074],[124.84402041200009,12.217657946000033],[124.70963361000008,12.27783331200004],[124.62653126700002,12.228430569000066],[124.47708579200001,12.34096342300006],[124.35739338700012,12.281708523000077],[124.39045583900008,12.195106796000061],[124.54623300700007,12.059011906000025],[124.69023594200006,12.003768380000054],[124.91895434100002,11.743232873000068],[125.01292376900005,11.77848712800005],[124.9023363010001,11.470665944000073],[124.98811453300003,11.416668103000061],[124.97961426600011,11.296041868000032],[125.1510497180001,11.27535613200007],[125.2466330740001,11.122447398000071],[125.21038826200002,11.550841041000067],[125.28287505800004,11.675657267000075],[125.2688080260001,11.827750626000066],[125.1274242920001,12.17881031200005],[125.16829145700002,12.282900013000074]]]}},{"type":"Feature","properties":{"id":"southern-leyte","name":"Southern Leyte"},"geometry":{"type":"Polygon","coordinates":[[[125.17386775300008,10.600700517000062],[125.07766168000012,10.525729142000044],[124.90562934700006,10.503658593000068],[124.90931299800002,10.278708334000044],[124.75392597100006,10.18592387600006],[125.02341602500007,10.089415358000053],[124.96983619700008,10.377046689000053],[125.21538054500003,10.246534939000071],[125.17386775300008,10.600700517000062]]]}},{"type":"Feature","properties":{"id":"biliran","name":"Biliran"},"geometry":{"type":"Polygon","coordinates":[[[124.39072140500002,11.600557918000051],[124.46232639600011,11.467784506000045],[124.57299756800013,11.472242290000052],[124.53559418300006,11.676206940000043],[124.39072140500002,11.600557918000051]]]}},{"type":"Feature","properties":{"id":"zamboanga-del-norte","name":"Zamboanga del Norte"},"geometry":{"type":"Polygon","coordinates":[[[123.55870746500013,8.270481135000068],[123.55831622200003,8.294802987000025],[123.56107968000003,8.34535582600006],[123.5595297530001,8.479864054000075],[123.55669766900007,8.501533075000054],[123.55382672300004,8.61668256200005],[123.392917634,8.62683107600003],[123.276393879,8.51225560200004],[123.0598605990001,8.513994870000033],[122.93714341500004,8.306926471000056],[122.98964910300005,8.20158273100003],[122.80708053400006,8.119366343000022],[122.62953613600007,8.113503538000032],[122.26853357100005,7.997790891000022],[122.08906121700011,7.743519110000021],[122.13988460600002,7.56315544900002],[122.07528080100008,7.488954669000064],[122.03676926800007,7.327557870000019],[121.90969927800008,7.153749580000067],[122.07638888800011,7.149999999000045],[122.18084260100011,7.281842348000054],[122.16058501600003,7.366221793000019],[122.27115422700001,7.499864672000059],[122.4054579220001,7.869266685000071],[122.74526241800004,7.951711293000074],[122.92021159200011,7.92168106200006],[123.17302855500009,8.013203840000072],[123.22031974600007,8.241586507000022],[123.34830849000004,8.22233516500006],[123.44501811000009,8.233949711000037],[123.47798319300013,8.258342397000037],[123.51228994600001,8.259952988000068],[123.539382971,8.264473919000066],[123.55870746500013,8.270481135000068]]]}},{"type":"Feature","properties":{"id":"zamboanga-del-sur","name":"Zamboanga del Sur"},"geometry":{"type":"MultiPolygon","coordinates":[[[[123.55870746500013,8.270481135000068],[123.539382971,8.264473919000066],[123.51228994600001,8.259952988000068],[123.47798319300013,8.258342397000037],[123.44501811000009,8.233949711000037],[123.34830849000004,8.22233516500006],[123.22031974600007,8.241586507000022],[123.17302855500009,8.013203840000072],[122.92021159200011,7.92168106200006],[123.08658299900003,7.695965122000073],[123.40570730200011,7.357656295000027],[123.3826684170001,7.602166640000065],[123.4631153370001,7.633179416000075],[123.46045780500002,7.811934227000051],[123.62337728000013,7.84693984800003],[123.63365937400012,7.868724675000066],[123.65928514200006,7.877206733000037],[123.66354640300007,7.922497570000077],[123.63503351900012,7.932721924000022],[123.64985195300005,7.959801629000025],[123.6165929550001,8.033723301000064],[123.60114335100002,8.026000753000062],[123.56117891200006,8.02504065200003],[123.562114887,8.080917875000068],[123.55807546900009,8.180193381000038],[123.55870746500013,8.270481135000068]]],[[[122.35241963500005,7.457650736000059],[122.27115422700001,7.499864672000059],[122.16058501600003,7.366221793000019],[122.18084260100011,7.281842348000054],[122.07638888800011,7.149999999000045],[121.90969927800008,7.153749580000067],[121.9482376100001,6.955820808000055],[122.11284617900003,6.889040597000076],[122.25172516200008,7.105551122000064],[122.29028368500008,7.321523505000075],[122.35241963500005,7.457650736000059]]]]}},{"type":"Feature","properties":{"id":"zamboanga-sibugay","name":"Zamboanga Sibugay"},"geometry":{"type":"Polygon","coordinates":[[[122.92021159200011,7.92168106200006],[122.74526241800004,7.951711293000074],[122.4054579220001,7.869266685000071],[122.27115422700001,7.499864672000059],[122.35241963500005,7.457650736000059],[122.546805821,7.734029548000024],[122.71639893600002,7.784366171000045],[122.87758458800012,7.470709220000061],[123.00384117800003,7.480155804000049],[123.08658299900003,7.695965122000073],[122.92021159200011,7.92168106200006]]]}}]}